{
    "week": 294,
    "satellites": [
        {
            "Name": "COSMOS 2485 (747)",
            "Line1": "1 39155U 13019A   24331.10934928  .00000003  00000+0  00000+0 0  9997",
            "Line2": "2 39155  65.1182  92.7156 0023559 227.9460 131.8393  2.13104449 90175",
            "SatelliteNumber": "39155",
            "Classification": "U",
            "LaunchYear": "13",
            "LaunchNumber": "019",
            "PieceOfLaunch": "A",
            "EpochYear": "24",
            "EpochDay": 331.10934928,
            "FirstDerivativeMeanMotion": 3e-08,
            "SecondDerivativeMeanMotion": "00000+0",
            "BSTAR": "00000+0",
            "SetNumber": "999",
            "Inclination": 65.1182,
            "RAAN": 92.7156,
            "Eccentricity": 0.0023559,
            "ArgumentOfPerigee": 227.946,
            "MeanAnomaly": 131.8393,
            "MeanMotion": 2.13104449,
            "RevolutionNumber": "9017"
        },
        {
            "Name": "COSMOS 2492 (754)",
            "Line1": "1 39620U 14012A   24330.59538699 -.00000042  00000+0  00000+0 0  9999",
            "Line2": "2 39620  65.6044 333.1935 0014388 310.3646  49.5426  2.13103300 83128",
            "SatelliteNumber": "39620",
            "Classification": "U",
            "LaunchYear": "14",
            "LaunchNumber": "012",
            "PieceOfLaunch": "A",
            "EpochYear": "24",
            "EpochDay": 330.59538699,
            "FirstDerivativeMeanMotion": -4.2e-07,
            "SecondDerivativeMeanMotion": "00000+0",
            "BSTAR": "00000+0",
            "SetNumber": "999",
            "Inclination": 65.6044,
            "RAAN": 333.1935,
            "Eccentricity": 0.0014388,
            "ArgumentOfPerigee": 310.3646,
            "MeanAnomaly": 49.5426,
            "MeanMotion": 2.131033,
            "RevolutionNumber": "8312"
        },
        {
            "Name": "COSMOS 2500 (755)",
            "Line1": "1 40001U 14032A   24330.30337483 -.00000042  00000+0  00000+0 0  9993",
            "Line2": "2 40001  65.5413 332.9956 0008503 220.7972 139.1716  2.13106122 81334",
            "SatelliteNumber": "40001",
            "Classification": "U",
            "LaunchYear": "14",
            "LaunchNumber": "032",
            "PieceOfLaunch": "A",
            "EpochYear": "24",
            "EpochDay": 330.30337483,
            "FirstDerivativeMeanMotion": -4.2e-07,
            "SecondDerivativeMeanMotion": "00000+0",
            "BSTAR": "00000+0",
            "SetNumber": "999",
            "Inclination": 65.5413,
            "RAAN": 332.9956,
            "Eccentricity": 0.0008503,
            "ArgumentOfPerigee": 220.7972,
            "MeanAnomaly": 139.1716,
            "MeanMotion": 2.13106122,
            "RevolutionNumber": "8133"
        },
        {
            "Name": "COSMOS 2501 (702K)",
            "Line1": "1 40315U 14075A   24330.08921097  .00000020  00000+0  00000+0 0  9998",
            "Line2": "2 40315  63.6162 210.0884 0019292 205.4537 154.5274  2.13101479 77720",
            "SatelliteNumber": "40315",
            "Classification": "U",
            "LaunchYear": "14",
            "LaunchNumber": "075",
            "PieceOfLaunch": "A",
            "EpochYear": "24",
            "EpochDay": 330.08921097,
            "FirstDerivativeMeanMotion": 2e-07,
            "SecondDerivativeMeanMotion": "00000+0",
            "BSTAR": "00000+0",
            "SetNumber": "999",
            "Inclination": 63.6162,
            "RAAN": 210.0884,
            "Eccentricity": 0.0019292,
            "ArgumentOfPerigee": 205.4537,
            "MeanAnomaly": 154.5274,
            "MeanMotion": 2.13101479,
            "RevolutionNumber": "7772"
        },
        {
            "Name": "COSMOS 2514 (751)",
            "Line1": "1 41330U 16008A   24331.01062260 -.00000042  00000+0  00000+0 0  9991",
            "Line2": "2 41330  65.3345 332.4402 0012576 221.6782 138.2575  2.13102723 68518",
            "SatelliteNumber": "41330",
            "Classification": "U",
            "LaunchYear": "16",
            "LaunchNumber": "008",
            "PieceOfLaunch": "A",
            "EpochYear": "24",
            "EpochDay": 331.0106226,
            "FirstDerivativeMeanMotion": -4.2e-07,
            "SecondDerivativeMeanMotion": "00000+0",
            "BSTAR": "00000+0",
            "SetNumber": "999",
            "Inclination": 65.3345,
            "RAAN": 332.4402,
            "Eccentricity": 0.0012576,
            "ArgumentOfPerigee": 221.6782,
            "MeanAnomaly": 138.2575,
            "MeanMotion": 2.13102723,
            "RevolutionNumber": "6851"
        },
        {
            "Name": "COSMOS 2522 (752)",
            "Line1": "1 42939U 17055A   24330.38113787  .00000022  00000+0  00000+0 0  9997",
            "Line2": "2 42939  64.0775 211.2616 0006515 232.5623 127.4547  2.13102021 55852",
            "SatelliteNumber": "42939",
            "Classification": "U",
            "LaunchYear": "17",
            "LaunchNumber": "055",
            "PieceOfLaunch": "A",
            "EpochYear": "24",
            "EpochDay": 330.38113787,
            "FirstDerivativeMeanMotion": 2.2e-07,
            "SecondDerivativeMeanMotion": "00000+0",
            "BSTAR": "00000+0",
            "SetNumber": "999",
            "Inclination": 64.0775,
            "RAAN": 211.2616,
            "Eccentricity": 0.0006515,
            "ArgumentOfPerigee": 232.5623,
            "MeanAnomaly": 127.4547,
            "MeanMotion": 2.13102021,
            "RevolutionNumber": "5585"
        },
        {
            "Name": "COSMOS 2527 (756)",
            "Line1": "1 43508U 18053A   24330.34054753  .00000010  00000+0  00000+0 0  9999",
            "Line2": "2 43508  65.2774  92.9272 0008403 219.5940 140.3319  2.13102186 50155",
            "SatelliteNumber": "43508",
            "Classification": "U",
            "LaunchYear": "18",
            "LaunchNumber": "053",
            "PieceOfLaunch": "A",
            "EpochYear": "24",
            "EpochDay": 330.34054753,
            "FirstDerivativeMeanMotion": 1e-07,
            "SecondDerivativeMeanMotion": "00000+0",
            "BSTAR": "00000+0",
            "SetNumber": "999",
            "Inclination": 65.2774,
            "RAAN": 92.9272,
            "Eccentricity": 0.0008403,
            "ArgumentOfPerigee": 219.594,
            "MeanAnomaly": 140.3319,
            "MeanMotion": 2.13102186,
            "RevolutionNumber": "5015"
        },
        {
            "Name": "COSMOS 2529 (757)",
            "Line1": "1 43687U 18086A   24331.37777543  .00000036  00000+0  00000+0 0  9994",
            "Line2": "2 43687  64.2931 211.7840 0007701 260.7511  99.2413  2.13102089 47189",
            "SatelliteNumber": "43687",
            "Classification": "U",
            "LaunchYear": "18",
            "LaunchNumber": "086",
            "PieceOfLaunch": "A",
            "EpochYear": "24",
            "EpochDay": 331.37777543,
            "FirstDerivativeMeanMotion": 3.6e-07,
            "SecondDerivativeMeanMotion": "00000+0",
            "BSTAR": "00000+0",
            "SetNumber": "999",
            "Inclination": 64.2931,
            "RAAN": 211.784,
            "Eccentricity": 0.0007701,
            "ArgumentOfPerigee": 260.7511,
            "MeanAnomaly": 99.2413,
            "MeanMotion": 2.13102089,
            "RevolutionNumber": "4718"
        },
        {
            "Name": "COSMOS 2534 (758)",
            "Line1": "1 44299U 19030A   24331.39901096  .00000036  00000+0  00000+0 0  9998",
            "Line2": "2 44299  64.3661 211.7519 0009934 286.9556 223.5610  2.13102195 42816",
            "SatelliteNumber": "44299",
            "Classification": "U",
            "LaunchYear": "19",
            "LaunchNumber": "030",
            "PieceOfLaunch": "A",
            "EpochYear": "24",
            "EpochDay": 331.39901096,
            "FirstDerivativeMeanMotion": 3.6e-07,
            "SecondDerivativeMeanMotion": "00000+0",
            "BSTAR": "00000+0",
            "SetNumber": "999",
            "Inclination": 64.3661,
            "RAAN": 211.7519,
            "Eccentricity": 0.0009934,
            "ArgumentOfPerigee": 286.9556,
            "MeanAnomaly": 223.561,
            "MeanMotion": 2.13102195,
            "RevolutionNumber": "4281"
        },
        {
            "Name": "COSMOS 2544 (759)",
            "Line1": "1 44850U 19088A   24330.28473361  .00000010  00000+0  00000+0 0  9992",
            "Line2": "2 44850  65.2643  92.7631 0012766 248.0461 111.8057  2.13102051 38597",
            "SatelliteNumber": "44850",
            "Classification": "U",
            "LaunchYear": "19",
            "LaunchNumber": "088",
            "PieceOfLaunch": "A",
            "EpochYear": "24",
            "EpochDay": 330.28473361,
            "FirstDerivativeMeanMotion": 1e-07,
            "SecondDerivativeMeanMotion": "00000+0",
            "BSTAR": "00000+0",
            "SetNumber": "999",
            "Inclination": 65.2643,
            "RAAN": 92.7631,
            "Eccentricity": 0.0012766,
            "ArgumentOfPerigee": 248.0461,
            "MeanAnomaly": 111.8057,
            "MeanMotion": 2.13102051,
            "RevolutionNumber": "3859"
        }
    ]
}